IRIDIUM 33 DEB          
1 37562U 97051XX  24248.28633194  .00015180  00000+0  40190-2 0  9991
2 37562  86.3732 244.8812 0025163 221.7179 199.2480 14.48507751795814
IRIDIUM 33 DEB          
1 37565U 97051YA  24249.20108837  .00009561  00000+0  25885-2 0  9998
2 37565  86.3545 210.8531 0013042 176.2641 183.8662 14.47583055785710
IRIDIUM 33 DEB          
1 38017U 97051YD  24249.30634403  .00070190  00000+0  25193-1 0  9992
2 38017  86.3338   4.4990 0156386 181.3769 178.7016 14.26857592547399
IRIDIUM 33 DEB          
1 38020U 97051YG  24247.90862463  .00148263  00000+0  22227-1 0  9991
2 38020  86.2705 301.7222 0083733 254.8174 104.3771 14.71435210774914
IRIDIUM 33 DEB          
1 38022U 97051YJ  24247.20203736  .00009946  00000+0  33622-2 0  9994
2 38022  86.2751 219.3236 0054178 131.9191 228.6644 14.35950574624986
IRIDIUM 33 DEB          
1 38028U 97051YQ  24246.62733741  .00005785  00000+0  16920-2 0  9998
2 38028  86.3301 202.4219 0026743 226.7793 133.1175 14.43654843587634
IRIDIUM 33 DEB          
1 38227U 97051ZB  24245.49547921  .00086968  00000+0  10204-1 0  9996
2 38227  86.3163 157.3028 0007570  59.3698 300.8271 14.84480660589875
IRIDIUM 33 DEB          
1 38228U 97051ZC  24248.75407701  .00002983  00000+0  12254-2 0  9993
2 38228  86.2912 245.3512 0063360 243.0637 241.6623 14.25666813781662
IRIDIUM 33 DEB          
1 38229U 97051ZD  24248.74182044  .00046699  00000+0  19629-1 0  9997
2 38229  86.3734  54.4168 0177645  59.0741 302.7772 14.17418354503791
IRIDIUM 33 DEB          
1 38236U 97051ZL  24248.56501883  .00091302  00000+0  14521-1 0  9998
2 38236  86.2461 180.0883 0043441 345.2532  14.7413 14.70914775717425
IRIDIUM 33 DEB          
1 38241U 97051ZR  24248.59510739  .00014706  00000+0  38224-2 0  9997
2 38241  86.3288 194.5080 0005064 126.2020 233.9653 14.49572946771276
IRIDIUM 33 DEB          
1 38474U 97051AAB 24247.18197805  .00006760  00000+0  18645-2 0  9990
2 38474  86.3496 212.2522 0025467 194.2714 165.7772 14.46528571585761
IRIDIUM 33 DEB          
1 38477U 97051AAE 24248.81935479  .00022086  00000+0  18499-1 0  9996
2 38477  86.4018 275.8414 0438278 131.8996 232.0419 13.51490565483867
IRIDIUM 33 DEB          
1 39594U 97051AAG 24241.27618107  .00055651  00000+0  89930-2 0  9999
2 39594  86.3930 241.4016 0005673   7.4613 352.6687 14.71050867568905
IRIDIUM 33 DEB          
1 39777U 97051AAJ 24249.74555540  .00018376  00000+0  54664-2 0  9992
2 39777  85.9706  37.5460 0072773 290.5476  68.7925 14.41525483561886
IRIDIUM 33 DEB          
1 39778U 97051AAK 24247.96166626  .00013687  00000+0  37018-2 0  9992
2 39778  86.3764 243.9375 0011091 129.1352 231.0839 14.47646832539501
IRIDIUM 33 DEB          
1 39781U 97051AAN 24234.86374118  .00030056  00000+0  14393-1 0  9997
2 39781  86.3742  92.1381 0219611  11.4127 359.0475 14.07045172654638
IRIDIUM 33 DEB          
1 39783U 97051AAQ 24247.42247720  .00034724  00000+0  68274-2 0  9997
2 39783  86.1598 122.1786 0046403   9.7551 163.7731 14.61756736538763
IRIDIUM 33 DEB          
1 39792U 97051AAZ 24246.18109019  .00080675  00000+0  25856-1 0  9991
2 39792  86.4052  52.4893 0131899 155.5765 205.1759 14.34158990526908
IRIDIUM 33 DEB          
1 40996U 97051ABJ 24248.65516382  .00047870  00000+0  85921-2 0  9998
2 40996  86.3675 212.8705 0007916 207.7696 277.6967 14.66446620556166
IRIDIUM 33 DEB          
1 40998U 97051ABL 24249.77682036  .00005942  00000+0  18108-2 0  9991
2 40998  86.3790 250.8552 0009077 149.3057 333.8727 14.41844416  4299
IRIDIUM 33 DEB          
1 46734U 97051ABR 24242.17830001  .00009887  00000+0  33085-2 0  9992
2 46734  86.2640 208.5833 0048851  79.2800 294.7474 14.36610257562402
IRIDIUM 33 DEB          
1 46965U 97051ABX 24248.30607101  .00014330  00000+0  33483-2 0  9993
2 46965  86.3448 185.7275 0024904  95.0670  57.4731 14.54410440555016
IRIDIUM 33 DEB          
1 46971U 97051ACD 24247.58404257  .00042129  00000+0  70678-2 0  9990
2 46971  86.3475 186.7280 0017619 106.7708  18.1306 14.69395903661402
IRIDIUM 33 DEB          
1 46972U 97051ACE 24248.27054722  .00008912  00000+0  24546-2 0  9991
2 46972  86.3850 238.6980 0008295 200.1640 221.3075 14.46785575548462
IRIDIUM 33 DEB          
1 46974U 97051ACG 24246.91008515  .00018021  00000+0  65813-2 0  9995
2 46974  86.3127 306.2016 0112735 271.1415  87.6865 14.29416589508144
IRIDIUM 33 DEB          
1 46979U 97051ACM 24247.78526397  .00041656  00000+0  95436-2 0  9993
2 46979  86.3455 258.1912 0053303  50.4725 310.1175 14.54498507285889
